CENTISPACE-1 GROUP 05 O*
1 69636U 26138J   26177.88411008 -.00000321  00000+0 -84946-4 0  9995
2 69636  55.1415 245.3325 0008345 300.6660  59.3492 14.15850570  1366
VICTUS HAZE PUMA        
1 69646U 26142A   26177.95387131  .00004315  00000+0  19828-3 0  9999
2 69646  97.4482  75.4667 0021068 292.5030  67.3975 15.20720947  1151
HOKUSHIN-1              
1 69648U 98067YH  26177.92573661  .00023930  00000+0  42215-3 0  9998
2 69648  51.6326 251.8488 0006229 258.3282 101.7008 15.50242635  1161
STARLINK-37656          
1 69649U 26143A   26177.75001157 -.02649490  19067-2 -75214-2 0  9991
2 69649  97.2850 221.0176 0001548  63.9412  23.4575 15.93540445  2007
STARLINK-37646          
1 69650U 26143B   26177.75001157 -.00671348  14642-3 -18215-2 0  9991
2 69650  97.2849 221.0181 0001202  70.2779  18.6225 15.94179601  2008
STARLINK-37749          
1 69651U 26143C   26177.75001157 -.01275680  48684-3 -33474-2 0  9999
2 69651  97.2847 221.0196 0000986  87.9521   4.9034 15.94896020  2008
STARLINK-37819          
1 69652U 26143D   26177.75001157 -.02733498  20616-2 -72503-2 0  9997
2 69652  97.2849 221.0194 0001459  71.4448  20.2834 15.94828041  2008
STARLINK-37729          
1 69653U 26143E   26177.75001157 -.00721262  16826-3 -19102-2 0  9997
2 69653  97.2850 221.0201 0001335  72.4860  21.2732 15.94643887  2003
STARLINK-37838          
1 69654U 26143F   26177.75001157 -.02420998  16032-2 -67440-2 0  9998
2 69654  97.2848 221.0205 0001449  69.4642  25.7017 15.93893572  2007
STARLINK-37884          
1 69655U 26143G   26177.75001157 -.01770215  89539-3 -46244-2 0  9990
2 69655  97.2848 221.0216 0001330  76.4688  20.7636 15.95047880  2004
STARLINK-37876          
1 69656U 26143H   26177.75001157 -.00640293  13519-3 -16631-2 0  9994
2 69656  97.2846 221.0218 0001149  66.0095  32.0833 15.94999090  1901
STARLINK-37784          
1 69657U 26143J   26177.75001157 -.02065416  12161-2 -50052-2 0  9991
2 69657  97.2849 221.0233 0001334  82.1395  19.3563 15.96481727  1903
STARLINK-37851          
1 69658U 26143K   26177.75001157 -.01740769  87177-3 -44432-2 0  9997
2 69658  97.2847 221.0231 0001347  77.2770  24.3861 15.95479121  1895
STARLINK-37229          
1 69659U 26143L   26177.75001157 -.02695708  20068-2 -71176-2 0  9991
2 69659  97.2847 221.0236 0001629  78.6744  23.8338 15.94913295  1943
STARLINK-37556          
1 69660U 26143M   26177.75001157 -.02653583  19652-2 -66900-2 0  9994
2 69660  97.2846 221.0243 0001614  61.1220  42.7617 15.95776915  1949
STARLINK-37867          
1 69661U 26143N   26177.75001157 -.01716466  85287-3 -42868-2 0  9999
2 69661  97.2845 221.0249 0001307  76.7730  29.0285 15.95882703  1900
STARLINK-37852          
1 69662U 26143P   26177.75001157 -.02667580  19830-2 -67708-2 0  9993
2 69662  97.2843 221.0253 0001530  75.6194  31.6046 15.95651823  1905
STARLINK-37554          
1 69663U 26143Q   26177.75001157 -.02293345  14949-2 -54242-2 0  9993
2 69663  97.2843 221.0261 0001659  66.4415  42.2507 15.96945833  1943
STARLINK-37830          
1 69664U 26143R   26177.75001157 -.02742794  21046-2 -68585-2 0  9992
2 69664  97.2841 221.0263 0001558  69.9286  39.9885 15.95928204  1894
STARLINK-37837          
1 69665U 26143S   26177.75001157 -.02546079  18400-2 -59664-2 0  9999
2 69665  97.2840 221.0268 0001619  76.5945  34.7732 15.97125276  1909
STARLINK-37943          
1 69666U 26143T   26177.75001157 -.02437210  16907-2 -56616-2 0  9990
2 69666  97.2841 221.0275 0001793  66.0517  46.5838 15.97282163  1908
STARLINK-37941          
1 69667U 26143U   26177.75001157 -.01275351  49011-3 -32262-2 0  9990
2 69667  97.2841 221.0280 0001180  70.1214  43.6968 15.95582228  1900
STARLINK-37930          
1 69668U 26143V   26177.75001157 -.02646574  19915-2 -61592-2 0  9998
2 69668  97.2844 221.0289 0001679  65.7732  49.6380 15.97251679  1898
STARLINK-37945          
1 69669U 26143W   26177.75001157 -.00627317  13251-3 -14895-2 0  9993
2 69669  97.2842 221.0292 0001087  71.8930  44.5455 15.96667455  1903
STARLINK-37948          
1 69670U 26143X   26177.75001157 -.02484418  17806-2 -54283-2 0  9994
2 69670  97.2841 221.0305 0001768  70.4840  49.0036 15.98395333  1900
STARLINK-37949          
1 69671U 26143Y   26177.75001157 -.02280084  15080-2 -49205-2 0  9998
2 69671  97.2840 221.0312 0001561  78.0369  42.9791 15.98611985  1903
STARLINK-37946          
1 69672U 26143Z   26177.75001157 -.02630166  19587-2 -62300-2 0  9996
2 69672  97.2841 221.0311 0001573  80.3631  40.4607 15.96929187  1908
TJS-26A                 
1 69674U 26144A   26174.32980920  .00009630 -16661-6  31526-3 0  9997
2 69674  19.5157 324.7456 7314561 179.7910 181.1077  2.27958502    21
