OBJECT_NAME,OBJECT_ID,EPOCH,MEAN_MOTION,ECCENTRICITY,INCLINATION,RA_OF_ASC_NODE,ARG_OF_PERICENTER,MEAN_ANOMALY,EPHEMERIS_TYPE,CLASSIFICATION_TYPE,NORAD_CAT_ID,ELEMENT_SET_NO,REV_AT_EPOCH,BSTAR,MEAN_MOTION_DOT,MEAN_MOTION_DDOT
CENTISPACE-1 GROUP 05 OBJECT J,2026-138J,2026-06-26T21:13:07.110912,14.15850570,.00083455,55.1415,245.3325,300.6660,59.3492,0,U,69636,999,136,-.84946398E-4,-.321E-5,0
VICTUS HAZE PUMA,2026-142A,2026-06-26T22:53:34.481184,15.20720947,.00210686,97.4482,75.4667,292.5030,67.3975,0,U,69646,999,115,.1982803E-3,.4315E-4,0
HOKUSHIN-1,1998-067YH,2026-06-26T22:13:03.643104,15.50242635,.00062292,51.6326,251.8488,258.3282,101.7008,0,U,69648,999,116,.42215392E-3,.2393E-3,0
STARLINK-37656,2026-143A,2026-06-26T18:00:00.999648,15.93540445,.00015489,97.2850,221.0176,63.9412,23.4575,0,U,69649,999,200,-.75213718E-2,-.264949E-1,.19067172E-2
STARLINK-37646,2026-143B,2026-06-26T18:00:00.999648,15.94179601,.00012029,97.2849,221.0181,70.2779,18.6225,0,U,69650,999,200,-.18215445E-2,-.671348E-2,.14641788E-3
STARLINK-37749,2026-143C,2026-06-26T18:00:00.999648,15.94896020,.00009863,97.2847,221.0196,87.9521,4.9034,0,U,69651,999,200,-.33473625E-2,-.127568E-1,.48683814E-3
STARLINK-37819,2026-143D,2026-06-26T18:00:00.999648,15.94828041,.00014599,97.2849,221.0194,71.4448,20.2834,0,U,69652,999,200,-.72502589E-2,-.2733498E-1,.20616077E-2
STARLINK-37729,2026-143E,2026-06-26T18:00:00.999648,15.94643887,.00013359,97.2850,221.0201,72.4860,21.2732,0,U,69653,999,200,-.19101564E-2,-.721262E-2,.1682626E-3
STARLINK-37838,2026-143F,2026-06-26T18:00:00.999648,15.93893572,.00014494,97.2848,221.0205,69.4642,25.7017,0,U,69654,999,200,-.67439843E-2,-.2420998E-1,.16031842E-2
STARLINK-37884,2026-143G,2026-06-26T18:00:00.999648,15.95047880,.00013303,97.2848,221.0216,76.4688,20.7636,0,U,69655,999,200,-.46243528E-2,-.1770215E-1,.89538627E-3
STARLINK-37876,2026-143H,2026-06-26T18:00:00.999648,15.94999090,.00011497,97.2846,221.0218,66.0095,32.0833,0,U,69656,999,190,-.1663134E-2,-.640293E-2,.13518851E-3
STARLINK-37784,2026-143J,2026-06-26T18:00:00.999648,15.96481727,.00013341,97.2849,221.0233,82.1395,19.3563,0,U,69657,999,190,-.50051509E-2,-.2065416E-1,.12160653E-2
STARLINK-37851,2026-143K,2026-06-26T18:00:00.999648,15.95479121,.00013476,97.2847,221.0231,77.2770,24.3861,0,U,69658,999,189,-.44431999E-2,-.1740769E-1,.87176811E-3
STARLINK-37229,2026-143L,2026-06-26T18:00:00.999648,15.94913295,.00016291,97.2847,221.0236,78.6744,23.8338,0,U,69659,999,194,-.71175915E-2,-.2695708E-1,.20067772E-2
STARLINK-37556,2026-143M,2026-06-26T18:00:00.999648,15.95776915,.00016149,97.2846,221.0243,61.1220,42.7617,0,U,69660,999,194,-.66900463E-2,-.2653583E-1,.19652241E-2
STARLINK-37867,2026-143N,2026-06-26T18:00:00.999648,15.95882703,.0001307,97.2845,221.0249,76.7730,29.0285,0,U,69661,999,190,-.42867799E-2,-.1716466E-1,.85286742E-3
STARLINK-37852,2026-143P,2026-06-26T18:00:00.999648,15.95651823,.000153,97.2843,221.0253,75.6194,31.6046,0,U,69662,999,190,-.67707802E-2,-.266758E-1,.19829886E-2
STARLINK-37554,2026-143Q,2026-06-26T18:00:00.999648,15.96945833,.0001659,97.2843,221.0261,66.4415,42.2507,0,U,69663,999,194,-.54242499E-2,-.2293345E-1,.1494948E-2
STARLINK-37830,2026-143R,2026-06-26T18:00:00.999648,15.95928204,.00015587,97.2841,221.0263,69.9286,39.9885,0,U,69664,999,189,-.68585417E-2,-.2742794E-1,.21046496E-2
STARLINK-37837,2026-143S,2026-06-26T18:00:00.999648,15.97125276,.00016193,97.2840,221.0268,76.5945,34.7732,0,U,69665,999,190,-.59664374E-2,-.2546079E-1,.1839966E-2
STARLINK-37943,2026-143T,2026-06-26T18:00:00.999648,15.97282163,.00017937,97.2841,221.0275,66.0517,46.5838,0,U,69666,999,190,-.56616085E-2,-.243721E-1,.16906571E-2
STARLINK-37941,2026-143U,2026-06-26T18:00:00.999648,15.95582228,.00011804,97.2841,221.0280,70.1214,43.6968,0,U,69667,999,190,-.32262108E-2,-.1275351E-1,.49010893E-3
STARLINK-37930,2026-143V,2026-06-26T18:00:00.999648,15.97251679,.00016797,97.2844,221.0289,65.7732,49.6380,0,U,69668,999,189,-.61591586E-2,-.2646574E-1,.19914957E-2
STARLINK-37945,2026-143W,2026-06-26T18:00:00.999648,15.96667455,.0001087,97.2842,221.0292,71.8930,44.5455,0,U,69669,999,190,-.1489511E-2,-.627317E-2,.13250716E-3
STARLINK-37948,2026-143X,2026-06-26T18:00:00.999648,15.98395333,.0001768,97.2841,221.0305,70.4840,49.0036,0,U,69670,999,190,-.54283401E-2,-.2484418E-1,.17805793E-2
STARLINK-37949,2026-143Y,2026-06-26T18:00:00.999648,15.98611985,.00015614,97.2840,221.0312,78.0369,42.9791,0,U,69671,999,190,-.49205156E-2,-.2280084E-1,.1508035E-2
STARLINK-37946,2026-143Z,2026-06-26T18:00:00.999648,15.96929187,.00015732,97.2841,221.0311,80.3631,40.4607,0,U,69672,999,190,-.62299599E-2,-.2630166E-1,.19586753E-2
TJS-26A,2026-144A,2026-06-23T07:54:55.514880,2.27958502,.73145613,19.5157,324.7456,179.7910,181.1077,0,U,69674,999,2,.31526459E-3,.963E-4,-.166614E-6
